STARLINK-11204 [DTC]    
1 60931U 24155H   26064.80089028 -.00001003  00000+0 -34273-5 0  9998
2 60931  53.1580   0.2697 0000755 111.8378 248.2720 15.69695037 87790
STARLINK-11246 [DTC]    
1 60932U 24155J   26064.22295920 -.00002995  00000+0 -19888-4 0  9990
2 60932  53.1589   3.0613 0001119 111.9016 248.2121 15.69689593 87700
STARLINK-11207 [DTC]    
1 60933U 24155K   26064.21805088 -.00001817  00000+0 -10145-4 0  9991
2 60933  53.1592   3.0340 0001220  37.9987 322.1117 15.69693941 87708
STARLINK-11237 [DTC]    
1 60934U 24155L   26064.21315310 -.00000013  00000+0  47524-5 0  9994
2 60934  53.1602   2.9984 0001133  89.9415 270.1732 15.69698264 87718
STARLINK-11253 [DTC]    
1 60935U 24155M   26064.52178751 -.00000022  00000+0  46728-5 0  9990
2 60935  53.1587   2.1005 0000974 108.1947 251.9177 15.69701327 87741
STARLINK-11241 [DTC]    
1 60936U 24155N   26064.19853125  .00000394  00000+0  81134-5 0  9990
2 60936  53.1591   3.6353 0001127  73.0432 287.0710 15.69705169 87694
STARLINK-32259          
1 60937U 24155P   26064.60827721  .00000267  00000+0  21159-4 0  9999
2 60937  53.1595 148.7908 0000897 109.2851 250.8247 15.30182135 85710
STARLINK-32262          
1 60938U 24155Q   26064.83334490  .00216114  00000+0  37942-2 0  9996
2 60938  53.1522 130.2192 0008588 347.3463 253.8680 15.49228196  5883
STARLINK-32258          
1 60939U 24155R   26064.65986728  .00007015  00000+0  24865-3 0  9993
2 60939  53.1573 148.4073 0000990  82.4041 277.7072 15.30210790 85673
STARLINK-32251          
1 60940U 24155S   26064.60088943 -.00001332  00000+0 -32865-4 0  9990
2 60940  53.1593 148.7451 0000864 111.0371 249.0722 15.30190242 85713
STARLINK-32224          
1 60941U 24155T   26064.46710659 -.00001192  00000+0 -28128-4 0  9992
2 60941  53.1609 149.3276 0001238  86.9510 273.1632 15.30182813 85707
STARLINK-32184          
1 60942U 24155U   26064.60510610 -.00000531  00000+0 -58001-5 0  9994
2 60942  53.1609 148.7735 0001165 102.3216 257.7915 15.30190635 85664
STARLINK-32288          
1 60943U 24155V   26064.61461096 -.00001118  00000+0 -25645-4 0  9998
2 60943  53.1610 148.8237 0000998  98.9306 261.1808 15.30185043 85665
STARLINK-32276          
1 60944U 24155W   26064.61144346 -.00001047  00000+0 -23238-4 0  9992
2 60944  53.1618 148.8047 0000870 122.6311 237.4774 15.30182787 85764
STARLINK-11289 [DTC]    
1 60991U 24158B   26064.65394717 -.00015011  00000+0 -11904-3 0  9992
2 60991  53.1619 300.9506 0000697 293.3380  66.7565 15.69756731 86969
STARLINK-11282 [DTC]    
1 60992U 24158C   26064.15930845 -.00002185  00000+0 -13193-4 0  9997
2 60992  53.1594 303.5548 0000922 180.3194 179.7824 15.69700617 86882
