[{"OBJECT_NAME":"STARLINK-11204 [DTC]","OBJECT_ID":"2024-155H","EPOCH":"2026-03-05T19:13:16.920192","MEAN_MOTION":15.69695037,"ECCENTRICITY":7.55e-5,"INCLINATION":53.158,"RA_OF_ASC_NODE":0.2697,"ARG_OF_PERICENTER":111.8378,"MEAN_ANOMALY":248.272,"EPHEMERIS_TYPE":0,"CLASSIFICATION_TYPE":"U","NORAD_CAT_ID":60931,"ELEMENT_SET_NO":999,"REV_AT_EPOCH":8779,"BSTAR":-3.4273e-6,"MEAN_MOTION_DOT":-1.003e-5,"MEAN_MOTION_DDOT":0},{"OBJECT_NAME":"STARLINK-11246 [DTC]","OBJECT_ID":"2024-155J","EPOCH":"2026-03-05T05:21:03.674880","MEAN_MOTION":15.69689593,"ECCENTRICITY":0.0001119,"INCLINATION":53.1589,"RA_OF_ASC_NODE":3.0613,"ARG_OF_PERICENTER":111.9016,"MEAN_ANOMALY":248.2121,"EPHEMERIS_TYPE":0,"CLASSIFICATION_TYPE":"U","NORAD_CAT_ID":60932,"ELEMENT_SET_NO":999,"REV_AT_EPOCH":8770,"BSTAR":-1.9888e-5,"MEAN_MOTION_DOT":-2.995e-5,"MEAN_MOTION_DDOT":0},{"OBJECT_NAME":"STARLINK-11207 [DTC]","OBJECT_ID":"2024-155K","EPOCH":"2026-03-05T05:13:59.596032","MEAN_MOTION":15.69693941,"ECCENTRICITY":0.000122,"INCLINATION":53.1592,"RA_OF_ASC_NODE":3.034,"ARG_OF_PERICENTER":37.9987,"MEAN_ANOMALY":322.1117,"EPHEMERIS_TYPE":0,"CLASSIFICATION_TYPE":"U","NORAD_CAT_ID":60933,"ELEMENT_SET_NO":999,"REV_AT_EPOCH":8770,"BSTAR":-1.0145e-5,"MEAN_MOTION_DOT":-1.817e-5,"MEAN_MOTION_DDOT":0},{"OBJECT_NAME":"STARLINK-11237 [DTC]","OBJECT_ID":"2024-155L","EPOCH":"2026-03-05T05:06:56.427840","MEAN_MOTION":15.69698264,"ECCENTRICITY":0.0001133,"INCLINATION":53.1602,"RA_OF_ASC_NODE":2.9984,"ARG_OF_PERICENTER":89.9415,"MEAN_ANOMALY":270.1732,"EPHEMERIS_TYPE":0,"CLASSIFICATION_TYPE":"U","NORAD_CAT_ID":60934,"ELEMENT_SET_NO":999,"REV_AT_EPOCH":8771,"BSTAR":4.7524e-6,"MEAN_MOTION_DOT":-1.3e-7,"MEAN_MOTION_DDOT":0},{"OBJECT_NAME":"STARLINK-11253 [DTC]","OBJECT_ID":"2024-155M","EPOCH":"2026-03-05T12:31:22.440864","MEAN_MOTION":15.69701327,"ECCENTRICITY":9.74e-5,"INCLINATION":53.1587,"RA_OF_ASC_NODE":2.1005,"ARG_OF_PERICENTER":108.1947,"MEAN_ANOMALY":251.9177,"EPHEMERIS_TYPE":0,"CLASSIFICATION_TYPE":"U","NORAD_CAT_ID":60935,"ELEMENT_SET_NO":999,"REV_AT_EPOCH":8774,"BSTAR":4.6728e-6,"MEAN_MOTION_DOT":-2.2e-7,"MEAN_MOTION_DDOT":0},{"OBJECT_NAME":"STARLINK-11241 [DTC]","OBJECT_ID":"2024-155N","EPOCH":"2026-03-05T04:45:53.100000","MEAN_MOTION":15.69705169,"ECCENTRICITY":0.0001127,"INCLINATION":53.1591,"RA_OF_ASC_NODE":3.6353,"ARG_OF_PERICENTER":73.0432,"MEAN_ANOMALY":287.071,"EPHEMERIS_TYPE":0,"CLASSIFICATION_TYPE":"U","NORAD_CAT_ID":60936,"ELEMENT_SET_NO":999,"REV_AT_EPOCH":8769,"BSTAR":8.1134e-6,"MEAN_MOTION_DOT":3.94e-6,"MEAN_MOTION_DDOT":0},{"OBJECT_NAME":"STARLINK-32259","OBJECT_ID":"2024-155P","EPOCH":"2026-03-05T14:35:55.150944","MEAN_MOTION":15.30182135,"ECCENTRICITY":8.97e-5,"INCLINATION":53.1595,"RA_OF_ASC_NODE":148.7908,"ARG_OF_PERICENTER":109.2851,"MEAN_ANOMALY":250.8247,"EPHEMERIS_TYPE":0,"CLASSIFICATION_TYPE":"U","NORAD_CAT_ID":60937,"ELEMENT_SET_NO":999,"REV_AT_EPOCH":8571,"BSTAR":2.1159e-5,"MEAN_MOTION_DOT":2.67e-6,"MEAN_MOTION_DDOT":0},{"OBJECT_NAME":"STARLINK-32262","OBJECT_ID":"2024-155Q","EPOCH":"2026-03-05T20:00:00.999360","MEAN_MOTION":15.49228196,"ECCENTRICITY":0.0008588,"INCLINATION":53.1522,"RA_OF_ASC_NODE":130.2192,"ARG_OF_PERICENTER":347.3463,"MEAN_ANOMALY":253.868,"EPHEMERIS_TYPE":0,"CLASSIFICATION_TYPE":"U","NORAD_CAT_ID":60938,"ELEMENT_SET_NO":999,"REV_AT_EPOCH":588,"BSTAR":0.0037942,"MEAN_MOTION_DOT":0.00216114,"MEAN_MOTION_DDOT":0},{"OBJECT_NAME":"STARLINK-32258","OBJECT_ID":"2024-155R","EPOCH":"2026-03-05T15:50:12.532992","MEAN_MOTION":15.3021079,"ECCENTRICITY":9.9e-5,"INCLINATION":53.1573,"RA_OF_ASC_NODE":148.4073,"ARG_OF_PERICENTER":82.4041,"MEAN_ANOMALY":277.7072,"EPHEMERIS_TYPE":0,"CLASSIFICATION_TYPE":"U","NORAD_CAT_ID":60939,"ELEMENT_SET_NO":999,"REV_AT_EPOCH":8567,"BSTAR":0.00024865,"MEAN_MOTION_DOT":7.015e-5,"MEAN_MOTION_DDOT":0},{"OBJECT_NAME":"STARLINK-32251","OBJECT_ID":"2024-155S","EPOCH":"2026-03-05T14:25:16.846752","MEAN_MOTION":15.30190242,"ECCENTRICITY":8.64e-5,"INCLINATION":53.1593,"RA_OF_ASC_NODE":148.7451,"ARG_OF_PERICENTER":111.0371,"MEAN_ANOMALY":249.0722,"EPHEMERIS_TYPE":0,"CLASSIFICATION_TYPE":"U","NORAD_CAT_ID":60940,"ELEMENT_SET_NO":999,"REV_AT_EPOCH":8571,"BSTAR":-3.2865e-5,"MEAN_MOTION_DOT":-1.332e-5,"MEAN_MOTION_DDOT":0},{"OBJECT_NAME":"STARLINK-32224","OBJECT_ID":"2024-155T","EPOCH":"2026-03-05T11:12:38.009376","MEAN_MOTION":15.30182813,"ECCENTRICITY":0.0001238,"INCLINATION":53.1609,"RA_OF_ASC_NODE":149.3276,"ARG_OF_PERICENTER":86.951,"MEAN_ANOMALY":273.1632,"EPHEMERIS_TYPE":0,"CLASSIFICATION_TYPE":"U","NORAD_CAT_ID":60941,"ELEMENT_SET_NO":999,"REV_AT_EPOCH":8570,"BSTAR":-2.8128e-5,"MEAN_MOTION_DOT":-1.192e-5,"MEAN_MOTION_DDOT":0},{"OBJECT_NAME":"STARLINK-32184","OBJECT_ID":"2024-155U","EPOCH":"2026-03-05T14:31:21.167040","MEAN_MOTION":15.30190635,"ECCENTRICITY":0.0001165,"INCLINATION":53.1609,"RA_OF_ASC_NODE":148.7735,"ARG_OF_PERICENTER":102.3216,"MEAN_ANOMALY":257.7915,"EPHEMERIS_TYPE":0,"CLASSIFICATION_TYPE":"U","NORAD_CAT_ID":60942,"ELEMENT_SET_NO":999,"REV_AT_EPOCH":8566,"BSTAR":-5.8001e-6,"MEAN_MOTION_DOT":-5.31e-6,"MEAN_MOTION_DDOT":0},{"OBJECT_NAME":"STARLINK-32288","OBJECT_ID":"2024-155V","EPOCH":"2026-03-05T14:45:02.386944","MEAN_MOTION":15.30185043,"ECCENTRICITY":9.98e-5,"INCLINATION":53.161,"RA_OF_ASC_NODE":148.8237,"ARG_OF_PERICENTER":98.9306,"MEAN_ANOMALY":261.1808,"EPHEMERIS_TYPE":0,"CLASSIFICATION_TYPE":"U","NORAD_CAT_ID":60943,"ELEMENT_SET_NO":999,"REV_AT_EPOCH":8566,"BSTAR":-2.5645e-5,"MEAN_MOTION_DOT":-1.118e-5,"MEAN_MOTION_DDOT":0},{"OBJECT_NAME":"STARLINK-32276","OBJECT_ID":"2024-155W","EPOCH":"2026-03-05T14:40:28.714944","MEAN_MOTION":15.30182787,"ECCENTRICITY":8.7e-5,"INCLINATION":53.1618,"RA_OF_ASC_NODE":148.8047,"ARG_OF_PERICENTER":122.6311,"MEAN_ANOMALY":237.4774,"EPHEMERIS_TYPE":0,"CLASSIFICATION_TYPE":"U","NORAD_CAT_ID":60944,"ELEMENT_SET_NO":999,"REV_AT_EPOCH":8576,"BSTAR":-2.3238e-5,"MEAN_MOTION_DOT":-1.047e-5,"MEAN_MOTION_DDOT":0},{"OBJECT_NAME":"STARLINK-11289 [DTC]","OBJECT_ID":"2024-158B","EPOCH":"2026-03-05T15:41:41.035488","MEAN_MOTION":15.69756731,"ECCENTRICITY":6.97e-5,"INCLINATION":53.1619,"RA_OF_ASC_NODE":300.9506,"ARG_OF_PERICENTER":293.338,"MEAN_ANOMALY":66.7565,"EPHEMERIS_TYPE":0,"CLASSIFICATION_TYPE":"U","NORAD_CAT_ID":60991,"ELEMENT_SET_NO":999,"REV_AT_EPOCH":8696,"BSTAR":-0.00011904,"MEAN_MOTION_DOT":-0.00015011,"MEAN_MOTION_DDOT":0},{"OBJECT_NAME":"STARLINK-11282 [DTC]","OBJECT_ID":"2024-158C","EPOCH":"2026-03-05T03:49:24.250080","MEAN_MOTION":15.69700617,"ECCENTRICITY":9.224e-5,"INCLINATION":53.1594,"RA_OF_ASC_NODE":303.5548,"ARG_OF_PERICENTER":180.3194,"MEAN_ANOMALY":179.7824,"EPHEMERIS_TYPE":0,"CLASSIFICATION_TYPE":"U","NORAD_CAT_ID":60992,"ELEMENT_SET_NO":999,"REV_AT_EPOCH":8688,"BSTAR":-1.3193389e-5,"MEAN_MOTION_DOT":-2.185e-5,"MEAN_MOTION_DDOT":0}]
